IRIDIUM 57 [-]          
1 25273U 98019B   24090.91911964  .00000646  00000+0  21944-3 0  9999
2 25273  86.3980 330.9220 0002165  87.4634 272.6810 14.35137272361191
IRIDIUM 63 [-]          
1 25286U 98021B   24090.90264557  .00000980  00000+0  33316-3 0  9991
2 25286  86.3929 267.8081 0001871  90.4586 269.6825 14.35661053360228
IRIDIUM 69 [-]          
1 25319U 98026A   24090.92241703  .00001188  00000+0  37236-3 0  9999
2 25319  86.3923 282.4353 0004051  65.4958 294.6663 14.39862013359254
IRIDIUM 71 [-]          
1 25320U 98026B   24090.93974301  .00001173  00000+0  36494-3 0  9998
2 25320  86.3919 277.2010 0004155  99.2663 260.9006 14.40187650359779
IRIDIUM 73 [-]          
1 25344U 98032C   24090.93257128  .00001552  00000+0  39268-3 0  9995
2 25344  86.4422 234.7276 0002576  82.8105 277.3393 14.50387991366287
IRIDIUM 82 [-]          
1 25467U 98051A   24090.89440920  .00015522  00000+0  81946-3 0  9993
2 25467  86.3817 322.8609 0134477 147.3365 213.6281 15.07807154356683
IRIDIUM 2 [-]           
1 25527U 98066A   24090.44391582  .00103973  00000+0  11343-2 0  9997
2 25527  85.5131 354.1066 0002321 104.5440 255.6082 15.63027275395538
